     2.100          NAVIGATION                              RINEX VERSION / TYPE
fic2rin                                 02/23/2015 00:18:15 PGM / RUN BY / DATE
                                                            END OF HEADER
32 15  2 22 12  0  0.0 -.217611435801D-03  .920863385545D-11  .000000000000D+00
     .280000000000D+02  .515937500000D+02  .463519307440D-08 -.195498065181D+01
     .257231295109D-05  .113147055963D-01  .130143016577D-04  .515358467293D+04
     .432000000000D+05 -.745058059692D-08  .826709054996D+00 -.271946191788D-06
     .947226783066D+00  .118406250000D+03  .224043563171D-01 -.810140888477D-08
     .142148778210D-09  .100000000000D+01  .183300000000D+04  .000000000000D+00
     .240000000000D+01  .000000000000D+00 -.372529029846D-08  .280000000000D+02
     .360060000000D+05  .400000000000D+01
29 15  2 22 11 59 44.0  .593673903495D-03  .227373675443D-11  .000000000000D+00
     .000000000000D+00  .325000000000D+02  .460019161645D-08 -.312539915694D+01
     .164471566677D-05  .132060481701D-02  .508502125740D-05  .515354939651D+04
     .431840000000D+05 -.521540641785D-07 -.129670531794D+01  .931322574615D-07
     .971982272563D+00  .283968750000D+03 -.837426340180D+00 -.827784480546D-08
     .445018536808D-09  .100000000000D+01  .183300000000D+04  .000000000000D+00
     .240000000000D+01  .000000000000D+00 -.977888703346D-08  .000000000000D+00
     .402360000000D+05  .400000000000D+01
29 15  2 22 13 59 44.0  .593690667301D-03  .227373675443D-11  .000000000000D+00
     .100000000000D+01  .344687500000D+02  .452518849226D-08 -.207577896610D+01
     .190176069736D-05  .132155010942D-02  .575743615627D-05  .515354704475D+04
     .503840000000D+05 -.242143869400D-07 -.129676477825D+01 -.745058059692D-08
     .971986000078D+00  .274687500000D+03 -.836788816573D+00 -.818891252965D-08
     .477877048354D-09  .100000000000D+01  .183300000000D+04  .000000000000D+00
     .240000000000D+01  .000000000000D+00 -.977888703346D-08  .100000000000D+01
     .432060000000D+05  .400000000000D+01
 1 15  2 22 14  0  0.0 -.872509554029D-05  .454747350886D-12  .000000000000D+00
     .510000000000D+02 -.711562500000D+02  .484341603343D-08 -.815812642808D+00
    -.371783971786D-05  .388555624522D-02  .741332769394D-05  .515366627693D+04
     .504000000000D+05  .521540641785D-07 -.296459820650D+00  .391155481339D-07
     .962209873001D+00  .236656250000D+03  .402125520153D+00 -.828534511788D-08
    -.351086052715D-09  .100000000000D+01  .183300000000D+04  .000000000000D+00
     .240000000000D+01  .000000000000D+00  .558793544769D-08  .510000000000D+02
     .432060000000D+05  .400000000000D+01
 2 15  2 22 14  0  0.0  .549510587007D-03  .227373675443D-11  .000000000000D+00
     .830000000000D+02 -.621875000000D+02  .553273046043D-08 -.240974863536D+00
    -.312551856041D-05  .144198023481D-01  .646896660328D-05  .515376516151D+04
     .504000000000D+05  .242143869400D-07 -.331959829014D+00  .206753611565D-06
     .940793574480D+00  .247468750000D+03 -.231533768105D+01 -.883322508214D-08
    -.305727020472D-09  .100000000000D+01  .183300000000D+04  .000000000000D+00
     .240000000000D+01  .000000000000D+00 -.204890966415D-07  .830000000000D+02
     .432060000000D+05  .400000000000D+01
 3 15  2 22 14  0  0.0  .222747214139D-03  .197815097636D-10  .000000000000D+00
     .450000000000D+02  .336562500000D+02  .447554356721D-08  .148203243962D+01
     .184215605259D-05  .949037144892D-03  .126212835312D-04  .515374778557D+04
     .504000000000D+05  .521540641785D-07  .743606951906D+00  .111758708954D-07
     .959568559779D+00  .136937500000D+03 -.295674618828D+01 -.795247410961D-08
    -.107147320259D-11  .100000000000D+01  .183300000000D+04  .000000000000D+00
     .240000000000D+01  .000000000000D+00  .139698386192D-08  .450000000000D+02
     .432060000000D+05  .400000000000D+01
 4 15  2 22 14  0  0.0 -.767642632127D-05 -.795807864051D-12  .000000000000D+00
     .540000000000D+02 -.714062500000D+02  .540343936065D-08 -.101778364680D+01
    -.352412462234D-05  .110446552280D-01  .681728124619D-05  .515372334671D+04
     .504000000000D+05  .614672899246D-07 -.316571758004D+00  .245869159698D-06
     .939840887117D+00  .237781250000D+03  .105241213488D+01 -.861393023334D-08
    -.345728686702D-09  .100000000000D+01  .183300000000D+04  .000000000000D+00
     .240000000000D+01  .000000000000D+00 -.651925802231D-08  .540000000000D+02
     .432060000000D+05  .400000000000D+01
 5 15  2 22 14  0  0.0 -.275682192296D-03  .500222085975D-11  .000000000000D+00
     .770000000000D+02  .154687500000D+02  .474055460598D-08  .211228389093D+01
     .890344381332D-06  .403038552031D-02  .134240835905D-04  .515378440666D+04
     .504000000000D+05 -.108033418655D-06  .737806110140D+00  .931322574615D-08
     .946840502473D+00  .114656250000D+03  .419192399377D+00 -.805783564120D-08
    -.575023952056D-10  .100000000000D+01  .183300000000D+04  .000000000000D+00
     .240000000000D+01  .000000000000D+00 -.107102096081D-07  .770000000000D+02
     .432060000000D+05  .400000000000D+01
 6 15  2 22 14  0  0.0  .894460827112D-04  .110276232590D-10  .000000000000D+00
     .400000000000D+02 -.658750000000D+02  .488948938114D-08  .164604475125D+01
    -.356696546078D-05  .337021541782D-03  .701472163200D-05  .515369640541D+04
     .504000000000D+05  .391155481339D-07 -.304985495093D+00  .204890966415D-07
     .962103194088D+00  .245500000000D+03  .271566116847D+01 -.829748848084D-08
    -.357157734196D-09  .100000000000D+01  .183300000000D+04  .000000000000D+00
     .240000000000D+01  .000000000000D+00  .465661287308D-08  .400000000000D+02
     .432060000000D+05  .400000000000D+01
 7 15  2 22 14  0  0.0  .442364718765D-03  .306954461848D-11  .000000000000D+00
     .910000000000D+02 -.674687500000D+02  .436911056242D-08 -.139485771303D+01
    -.359676778316D-05  .802896288224D-02  .640936195850D-05  .515373246765D+04
     .504000000000D+05  .540167093277D-07  .286365500405D+01 -.132247805595D-06
     .971348056614D+00  .260937500000D+03 -.275349325258D+01 -.813569602725D-08
    -.464662212189D-09  .100000000000D+01  .183300000000D+04  .000000000000D+00
     .340000000000D+01  .000000000000D+00 -.111758708954D-07  .910000000000D+02
     .432060000000D+05  .400000000000D+01
 8 15  2 22 14  0  0.0  .178632326424D-04  .227373675443D-12  .000000000000D+00
     .190000000000D+02 -.586875000000D+02  .389051919860D-08  .143835722078D+00
    -.303983688354D-05  .144369630143D-01  .711344182491D-05  .515356435394D+04
     .504000000000D+05  .134110450745D-06  .296897417630D+01  .176951289177D-06
     .994983048878D+00  .262656250000D+03 -.268913473326D+01 -.809283709915D-08
    -.489663253583D-09  .100000000000D+01  .183300000000D+04  .000000000000D+00
     .240000000000D+01  .630000000000D+02 -.512227416039D-08  .190000000000D+02
     .432060000000D+05  .400000000000D+01
 9 15  2 22 14  0  0.0 -.944333150983D-04 -.110276232590D-10  .000000000000D+00
     .450000000000D+02  .819375000000D+02  .489448958942D-08  .972760648848D+00
     .409223139286D-05  .385883729905D-03  .487267971039D-05  .515364739990D+04
     .504000000000D+05  .242143869400D-07  .178789796771D+01 -.111758708954D-07
     .957784553125D+00  .282156250000D+03  .224489299827D+01 -.847713882114D-08
     .209294432239D-09  .100000000000D+01  .183300000000D+04  .000000000000D+00
     .240000000000D+01  .000000000000D+00  .465661287308D-09  .450000000000D+02
     .432060000000D+05  .400000000000D+01
10 15  2 22 14  0  0.0 -.164471101016D-03 -.170530256582D-11  .000000000000D+00
     .103000000000D+03  .244687500000D+02  .477305595980D-08  .247340049357D+01
     .111572444439D-05  .145610127365D-01  .137798488140D-04  .515367119026D+04
     .504000000000D+05  .000000000000D+00  .753444799497D+00 -.266358256340D-06
     .941620036883D+00  .993125000000D+02  .922850809629D+00 -.786604193793D-08
    -.271439877989D-10  .100000000000D+01  .183300000000D+04  .000000000000D+00
     .240000000000D+01  .000000000000D+00 -.325962901115D-08  .103000000000D+03
     .432060000000D+05  .400000000000D+01
11 15  2 22 14  0  0.0 -.559631269425D-03 -.272848410532D-11  .000000000000D+00
     .470000000000D+02 -.495312500000D+02  .663956227871D-08 -.132619968040D+01
    -.216811895370D-05  .156145970104D-01  .398978590965D-05  .515371968079D+04
     .504000000000D+05  .298023223877D-07 -.640255985255D+00  .368803739548D-06
     .892563090607D+00  .264718750000D+03  .138347700035D+01 -.931038781502D-08
    -.138220043134D-09  .100000000000D+01  .183300000000D+04  .000000000000D+00
     .240000000000D+01  .000000000000D+00 -.121071934700D-07  .470000000000D+02
     .432060000000D+05  .400000000000D+01
12 15  2 22 14  0  0.0  .271349214017D-03  .295585778076D-11  .000000000000D+00
     .108000000000D+03 -.121875000000D+02  .353086136026D-08 -.186131685072D+01
    -.612810254097D-06  .532353867311D-02  .121407210827D-04  .515373546982D+04
     .504000000000D+05 -.372529029846D-07 -.235295324597D+01 -.111758708954D-06
     .989376182735D+00  .161000000000D+03  .515206096013D+00 -.749352642117D-08
     .196793911542D-09  .100000000000D+01  .183300000000D+04  .000000000000D+00
     .240000000000D+01  .000000000000D+00 -.125728547573D-07  .108000000000D+03
     .432060000000D+05  .400000000000D+01
13 15  2 22 14  0  0.0 -.905687920749D-04 -.341060513165D-11  .000000000000D+00
     .870000000000D+02  .679375000000D+02  .464412201775D-08 -.643496910561D+00
     .364333391190D-05  .535414891783D-02  .498816370964D-05  .515368414116D+04
     .504000000000D+05 -.260770320892D-07  .190161035448D+01 -.689178705215D-07
     .974577105951D+00  .288656250000D+03  .206351435393D+01 -.842213653008D-08
     .228938107620D-09  .100000000000D+01  .183300000000D+04  .000000000000D+00
     .240000000000D+01  .000000000000D+00 -.116415321827D-07  .870000000000D+02
     .432060000000D+05  .400000000000D+01
